start=new Date('2022-03-02T00:00:00.000Z').valueOf();
sats=[{"APOAPSIS":"548.326","RCS_SIZE":"LARGE","DECAY_DATE":null,"MEAN_ELEMENT_THEORY":"SGP4","BSTAR":"0.00015004000000","FILE":"3337314","GP_ID":"197491078","SITE":"AFETR","MEAN_ANOMALY":"292.5421","OBJECT_TYPE":"PAYLOAD","RA_OF_ASC_NODE":"147.0512","LAUNCH_DATE":"2021-01-20","CENTER_NAME":"EARTH","OBJECT_NAME":"STARLINK-2127","ARG_OF_PERICENTER":"67.5742","MEAN_MOTION":"15.06408858","NORAD_CAT_ID":"47403","PERIOD":"95.592","ECCENTRICITY":"0.00016450","REF_FRAME":"TEME","TLE_LINE2":"2 47403  53.0539 147.0512 0001645  67.5742 292.5421 15.06408858 62022","ELEMENT_SET_NO":"999","MEAN_MOTION_DOT":"0.00001954","EPOCH":"2022-03-01T12:08:08.953152","PERIAPSIS":"546.047","TLE_LINE1":"1 47403U 21005BG  22060.50565918  .00001954  00000-0  15004-3 0  9997","EPHEMERIS_TYPE":"0","COUNTRY_CODE":"US","MEAN_MOTION_DDOT":"0.0000000000000","TIME_SYSTEM":"UTC","SEMIMAJOR_AXIS":"6925.321","INCLINATION":"53.0539","REV_AT_EPOCH":"6202","CLASSIFICATION_TYPE":"U","OBJECT_ID":"2021-005BG"},{"TLE_LINE1":"1 47404U 21005BH  22060.63468260 -.00000051  00000-0  15464-4 0  9993","EPHEMERIS_TYPE":"0","COUNTRY_CODE":"US","PERIAPSIS":"545.920","MEAN_MOTION_DDOT":"0.0000000000000","REV_AT_EPOCH":"6204","INCLINATION":"53.0546","SEMIMAJOR_AXIS":"6925.351","TIME_SYSTEM":"UTC","OBJECT_ID":"2021-005BH","CLASSIFICATION_TYPE":"U","NORAD_CAT_ID":"47404","REF_FRAME":"TEME","ECCENTRICITY":"0.00018720","PERIOD":"95.592","ELEMENT_SET_NO":"999","TLE_LINE2":"2 47404  53.0546 146.4737 0001872  30.9902 329.1197 15.06399179 62041","EPOCH":"2022-03-01T15:13:56.576640","MEAN_MOTION_DOT":"-0.00000051","RA_OF_ASC_NODE":"146.4737","LAUNCH_DATE":"2021-01-20","ARG_OF_PERICENTER":"30.9902","OBJECT_NAME":"STARLINK-2128","CENTER_NAME":"EARTH","MEAN_MOTION":"15.06399179","DECAY_DATE":null,"RCS_SIZE":"LARGE","APOAPSIS":"548.512","MEAN_ELEMENT_THEORY":"SGP4","FILE":"3338635","BSTAR":"0.00001546400000","OBJECT_TYPE":"PAYLOAD","MEAN_ANOMALY":"329.1197","SITE":"AFETR","GP_ID":"197542295"},{"MEAN_ANOMALY":"297.4108","SITE":"AFETR","GP_ID":"197542546","OBJECT_TYPE":"PAYLOAD","FILE":"3338635","BSTAR":"-0.00011326000000","MEAN_ELEMENT_THEORY":"SGP4","APOAPSIS":"548.198","DECAY_DATE":null,"RCS_SIZE":"LARGE","MEAN_MOTION":"15.06391786","ARG_OF_PERICENTER":"62.7022","CENTER_NAME":"EARTH","OBJECT_NAME":"STARLINK-2130","LAUNCH_DATE":"2021-01-20","RA_OF_ASC_NODE":"175.9422","EPOCH":"2022-03-01T17:59:47.877216","MEAN_MOTION_DOT":"-0.00001968","TLE_LINE2":"2 47405  53.0539 175.9422 0001385  62.7022 297.4108 15.06391786 61636","ELEMENT_SET_NO":"999","ECCENTRICITY":"0.00013850","PERIOD":"95.593","REF_FRAME":"TEME","NORAD_CAT_ID":"47405","CLASSIFICATION_TYPE":"U","OBJECT_ID":"2021-005BJ","SEMIMAJOR_AXIS":"6925.374","TIME_SYSTEM":"UTC","INCLINATION":"53.0539","REV_AT_EPOCH":"6163","MEAN_MOTION_DDOT":"0.0000000000000","TLE_LINE1":"1 47405U 21005BJ  22060.74985969 -.00001968  00000-0 -11326-3 0  9997","EPHEMERIS_TYPE":"0","COUNTRY_CODE":"US","PERIAPSIS":"546.280"},{"TLE_LINE2":"2 47406  53.0547 146.1162 0001535  82.9438 277.1725 15.06399436 62056","ELEMENT_SET_NO":"999","MEAN_MOTION_DOT":"-0.00000051","EPOCH":"2022-03-01T17:05:22.953408","NORAD_CAT_ID":"47406","ECCENTRICITY":"0.00015350","PERIOD":"95.592","REF_FRAME":"TEME","TIME_SYSTEM":"UTC","SEMIMAJOR_AXIS":"6925.350","REV_AT_EPOCH":"6205","INCLINATION":"53.0547","CLASSIFICATION_TYPE":"U","OBJECT_ID":"2021-005BK","PERIAPSIS":"546.152","TLE_LINE1":"1 47406U 21005BK  22060.71207122 -.00000051  00000-0  15445-4 0  9991","EPHEMERIS_TYPE":"0","COUNTRY_CODE":"US","MEAN_MOTION_DDOT":"0.0000000000000","BSTAR":"0.00001544500000","FILE":"3338635","GP_ID":"197541294","MEAN_ANOMALY":"277.1725","SITE":"AFETR","OBJECT_TYPE":"PAYLOAD","APOAPSIS":"548.278","DECAY_DATE":null,"RCS_SIZE":"LARGE","MEAN_ELEMENT_THEORY":"SGP4","OBJECT_NAME":"STARLINK-2133","CENTER_NAME":"EARTH","ARG_OF_PERICENTER":"82.9438","MEAN_MOTION":"15.06399436","RA_OF_ASC_NODE":"146.1162","LAUNCH_DATE":"2021-01-20"},{"OBJECT_TYPE":"PAYLOAD","GP_ID":"197541544","MEAN_ANOMALY":"305.5195","SITE":"AFETR","BSTAR":"0.00003349400000","FILE":"3338635","MEAN_ELEMENT_THEORY":"SGP4","DECAY_DATE":null,"RCS_SIZE":"LARGE","APOAPSIS":"548.254","MEAN_MOTION":"15.06402979","OBJECT_NAME":"STARLINK-2134","CENTER_NAME":"EARTH","ARG_OF_PERICENTER":"54.5936","LAUNCH_DATE":"2021-01-20","RA_OF_ASC_NODE":"146.3892","MEAN_MOTION_DOT":"0.00000217","EPOCH":"2022-03-01T15:40:28.190784","ELEMENT_SET_NO":"999","TLE_LINE2":"2 47407  53.0538 146.3892 0001516  54.5936 305.5195 15.06402979 62049","REF_FRAME":"TEME","PERIOD":"95.592","ECCENTRICITY":"0.00015160","NORAD_CAT_ID":"47407","OBJECT_ID":"2021-005BL","CLASSIFICATION_TYPE":"U","REV_AT_EPOCH":"6204","INCLINATION":"53.0538","TIME_SYSTEM":"UTC","SEMIMAJOR_AXIS":"6925.339","MEAN_MOTION_DDOT":"0.0000000000000","PERIAPSIS":"546.155","EPHEMERIS_TYPE":"0","TLE_LINE1":"1 47407U 21005BL  22060.65310406  .00000217  00000-0  33494-4 0  9992","COUNTRY_CODE":"US"},{"DECAY_DATE":null,"RCS_SIZE":"LARGE","APOAPSIS":"548.231","MEAN_ELEMENT_THEORY":"SGP4","FILE":"3338635","BSTAR":"0.00001172800000","OBJECT_TYPE":"PAYLOAD","MEAN_ANOMALY":"303.0892","SITE":"AFETR","GP_ID":"197542795","RA_OF_ASC_NODE":"146.5135","LAUNCH_DATE":"2021-01-20","ARG_OF_PERICENTER":"57.0238","OBJECT_NAME":"STARLINK-2135","CENTER_NAME":"EARTH","MEAN_MOTION":"15.06399592","NORAD_CAT_ID":"47408","REF_FRAME":"TEME","PERIOD":"95.592","ECCENTRICITY":"0.00014670","ELEMENT_SET_NO":"999","TLE_LINE2":"2 47408  53.0552 146.5135 0001467  57.0238 303.0892 15.06399592 62049","EPOCH":"2022-03-01T14:58:00.566688","MEAN_MOTION_DOT":"-0.00000107","COUNTRY_CODE":"US","TLE_LINE1":"1 47408U 21005BM  22060.62361767 -.00000107  00000-0  11728-4 0  9991","EPHEMERIS_TYPE":"0","PERIAPSIS":"546.199","MEAN_MOTION_DDOT":"0.0000000000000","REV_AT_EPOCH":"6204","INCLINATION":"53.0552","SEMIMAJOR_AXIS":"6925.350","TIME_SYSTEM":"UTC","OBJECT_ID":"2021-005BM","CLASSIFICATION_TYPE":"U"},{"COUNTRY_CODE":"US","TLE_LINE1":"1 47548U 21009A   22060.69549443  .00000537  00000-0  54925-4 0  9998","EPHEMERIS_TYPE":"0","PERIAPSIS":"546.081","MEAN_MOTION_DDOT":"0.0000000000000","SEMIMAJOR_AXIS":"6925.365","TIME_SYSTEM":"UTC","INCLINATION":"53.0530","REV_AT_EPOCH":"5952","CLASSIFICATION_TYPE":"U","OBJECT_ID":"2021-009A","NORAD_CAT_ID":"47548","ECCENTRICITY":"0.00016590","PERIOD":"95.592","REF_FRAME":"TEME","TLE_LINE2":"2 47548  53.0530 126.1988 0001659  60.9334 299.1821 15.06394698 59521","ELEMENT_SET_NO":"999","EPOCH":"2022-03-01T16:41:30.718752","MEAN_MOTION_DOT":"0.00000537","RA_OF_ASC_NODE":"126.1988","LAUNCH_DATE":"2021-02-04","ARG_OF_PERICENTER":"60.9334","OBJECT_NAME":"STARLINK-1782","CENTER_NAME":"EARTH","MEAN_MOTION":"15.06394698","APOAPSIS":"548.379","DECAY_DATE":null,"RCS_SIZE":"LARGE","MEAN_ELEMENT_THEORY":"SGP4","FILE":"3338635","BSTAR":"0.00005492500000","SITE":"AFETR","MEAN_ANOMALY":"299.1821","GP_ID":"197542562","OBJECT_TYPE":"PAYLOAD"},{"OBJECT_ID":"2021-009B","CLASSIFICATION_TYPE":"U","INCLINATION":"53.0547","REV_AT_EPOCH":"5949","SEMIMAJOR_AXIS":"6925.308","TIME_SYSTEM":"UTC","MEAN_MOTION_DDOT":"0.0000000000000","EPHEMERIS_TYPE":"0","TLE_LINE1":"1 47549U 21009B   22060.49276526  .00002272  00000-0  17130-3 0  9990","COUNTRY_CODE":"US","PERIAPSIS":"546.173","EPOCH":"2022-03-01T11:49:34.918464","MEAN_MOTION_DOT":"0.00002272","ELEMENT_SET_NO":"999","TLE_LINE2":"2 47549  53.0547 127.1078 0001444  66.5645 293.5496 15.06413220 59495","REF_FRAME":"TEME","PERIOD":"95.591","ECCENTRICITY":"0.00014440","NORAD_CAT_ID":"47549","MEAN_MOTION":"15.06413220","ARG_OF_PERICENTER":"66.5645","OBJECT_NAME":"STARLINK-1806","CENTER_NAME":"EARTH","LAUNCH_DATE":"2021-02-04","RA_OF_ASC_NODE":"127.1078","OBJECT_TYPE":"PAYLOAD","MEAN_ANOMALY":"293.5496","SITE":"AFETR","GP_ID":"197490342","FILE":"3337314","BSTAR":"0.00017130000000","MEAN_ELEMENT_THEORY":"SGP4","DECAY_DATE":null,"RCS_SIZE":"LARGE","APOAPSIS":"548.173"},{"NORAD_CAT_ID":"47550","PERIOD":"95.593","ECCENTRICITY":"0.00015010","REF_FRAME":"TEME","TLE_LINE2":"2 47550  53.0535 115.5687 0001501  53.3761 306.7366 15.06393720 59684","ELEMENT_SET_NO":"999","MEAN_MOTION_DOT":"-0.00001330","EPOCH":"2022-03-01T20:04:32.178720","PERIAPSIS":"546.193","TLE_LINE1":"1 47550U 21009C   22060.83648355 -.00001330  00000-0 -70441-4 0  9994","COUNTRY_CODE":"US","EPHEMERIS_TYPE":"0","MEAN_MOTION_DDOT":"0.0000000000000","TIME_SYSTEM":"UTC","SEMIMAJOR_AXIS":"6925.368","INCLINATION":"53.0535","REV_AT_EPOCH":"5968","CLASSIFICATION_TYPE":"U","OBJECT_ID":"2021-009C","APOAPSIS":"548.272","RCS_SIZE":"LARGE","DECAY_DATE":null,"MEAN_ELEMENT_THEORY":"SGP4","BSTAR":"-0.00007044100000","FILE":"3338635","GP_ID":"197541560","MEAN_ANOMALY":"306.7366","SITE":"AFETR","OBJECT_TYPE":"PAYLOAD","RA_OF_ASC_NODE":"115.5687","LAUNCH_DATE":"2021-02-04","CENTER_NAME":"EARTH","OBJECT_NAME":"STARLINK-1909","ARG_OF_PERICENTER":"53.3761","MEAN_MOTION":"15.06393720"},{"REF_FRAME":"TEME","PERIOD":"95.592","ECCENTRICITY":"0.00016850","NORAD_CAT_ID":"47551","EPOCH":"2022-03-01T11:58:52.412736","MEAN_MOTION_DOT":"0.00000040","ELEMENT_SET_NO":"999","TLE_LINE2":"2 47551  53.0549 137.0724 0001685  52.9469 307.1673 15.06396944 59951","MEAN_MOTION_DDOT":"0.0000000000000","COUNTRY_CODE":"US","TLE_LINE1":"1 47551U 21009D   22060.49921774  .00000040  00000-0  21609-4 0  9993","EPHEMERIS_TYPE":"0","PERIAPSIS":"546.056","OBJECT_ID":"2021-009D","CLASSIFICATION_TYPE":"U","INCLINATION":"53.0549","REV_AT_EPOCH":"5995","SEMIMAJOR_AXIS":"6925.358","TIME_SYSTEM":"UTC","MEAN_ELEMENT_THEORY":"SGP4","DECAY_DATE":null,"RCS_SIZE":"LARGE","APOAPSIS":"548.390","OBJECT_TYPE":"PAYLOAD","SITE":"AFETR","MEAN_ANOMALY":"307.1673","GP_ID":"197505905","FILE":"3337930","BSTAR":"0.00002160900000","LAUNCH_DATE":"2021-02-04","RA_OF_ASC_NODE":"137.0724","MEAN_MOTION":"15.06396944","ARG_OF_PERICENTER":"52.9469","CENTER_NAME":"EARTH","OBJECT_NAME":"STARLINK-1938"}];
